NORAD_CAT_ID,OBJECT_NAME,OBJECT_TYPE,EPOCH,MEAN_MOTION,ECCENTRICITY,INCLINATION,RA_OF_ASC_NODE,ARG_OF_PERICENTER,MEAN_ANOMALY,BSTAR,MEAN_MOTION_DOT,MEAN_MOTION_DDOT,TLE_LINE0,TLE_LINE1,TLE_LINE2,SEMIMAJOR_AXIS,PERIOD,APOGEE,PERIGEE,DECAYED
55757.0,STARLINK-5544,PAYLOAD,2023-11-10 04:20:32,14.98329296,0.0002799,70.0002,228.8309,262.7257,97.3584,6.2261e-05,6.5e-06,0.0,0 STARLINK-5544,1 55757U 23028S   23314.18092746  .00000650  00000-0  62261-4 0  9996,2 55757  70.0002 228.8309 0002799 262.7257  97.3584 14.98329296 38640,6950.195,96.107,574.005,570.115,0.0
55757.0,STARLINK-5544,PAYLOAD,2023-11-10 12:21:12,14.98329277,0.0002583,70.0007,227.9871,259.5427,100.5441,-2.5853e-05,-4.01e-06,0.0,0 STARLINK-5544,1 55757U 23028S   23314.51472967 -.00000401  00000-0 -25853-4 0  9992,2 55757  70.0007 227.9871 0002583 259.5427 100.5441 14.98329277 38696,6950.195,96.107,573.855,570.265,0.0
55757.0,STARLINK-5544,PAYLOAD,2023-11-10 21:58:00,14.98331332,0.0002637,70.0,226.9771,259.2258,100.8604,-7.9481e-06,-1.88e-06,0.0,0 STARLINK-5544,1 55757U 23028S   23314.91528713 -.00000188  00000-0 -79481-5 0  9996,2 55757  70.0000 226.9771 0002637 259.2258 100.8604 14.98331332 38752,6950.189,96.107,573.887,570.221,0.0
55757.0,STARLINK-5544,PAYLOAD,2023-11-11 02:46:24,14.98339215,0.0002536,70.0004,226.4744,249.9665,110.1221,1.3955e-05,7.4e-07,0.0,0 STARLINK-5544,1 55757U 23028S   23315.11556132  .00000074  00000-0  13955-4 0  9990,2 55757  70.0004 226.4744 0002536 249.9665 110.1221 14.98339215 38787,6950.164,96.106,573.792,570.267,0.0
55757.0,STARLINK-5544,PAYLOAD,2023-11-11 04:22:32,14.98333806,0.0002569,70.0005,226.3059,257.4286,102.6586,2.2243e-05,1.72e-06,0.0,0 STARLINK-5544,1 55757U 23028S   23315.18232448  .00000172  00000-0  22243-4 0  9997,2 55757  70.0005 226.3059 0002569 257.4286 102.6586 14.98333806 38796,6950.181,96.107,573.832,570.261,0.0
55757.0,STARLINK-5544,PAYLOAD,2023-11-11 20:23:53,14.98327754,0.0002431,70.0012,224.6232,258.3945,101.6942,3.8689e-05,3.69e-06,0.0,0 STARLINK-5544,1 55757U 23028S   23315.84992715  .00000369  00000-0  38689-4 0  9999,2 55757  70.0012 224.6232 0002431 258.3945 101.6942 14.98327754 38899,6950.2,96.107,573.754,570.375,0.0
55757.0,STARLINK-5544,PAYLOAD,2023-11-11 22:00:01,14.98328184,0.0002431,70.001,224.4551,257.5425,102.5462,3.4088e-05,3.14e-06,0.0,0 STARLINK-5544,1 55757U 23028S   23315.91668697  .00000314  00000-0  34088-4 0  9995,2 55757  70.0010 224.4551 0002431 257.5425 102.5462 14.98328184 38900,6950.199,96.107,573.753,570.374,0.0
55757.0,STARLINK-5544,PAYLOAD,2023-11-12 10:49:05,14.98353703,0.0002565,70.0003,223.1065,271.8789,88.2076,-0.00043725,-5.309e-05,0.0,0 STARLINK-5544,1 55757U 23028S   23316.45076126 -.00005309  00000-0 -43725-3 0  9993,2 55757  70.0003 223.1065 0002565 271.8789  88.2076 14.98353703 38982,6950.12,96.105,573.767,570.202,0.0
55757.0,STARLINK-5544,PAYLOAD,2023-11-12 18:49:46,14.98326834,0.0002807,70.0004,222.2647,266.2888,93.795,4.0004e-05,3.84e-06,0.0,0 STARLINK-5544,1 55757U 23028S   23316.78456674  .00000384  00000-0  40004-4 0  9993,2 55757  70.0004 222.2647 0002807 266.2888  93.7950 14.98326834 39030,6950.203,96.107,574.019,570.117,0.0
55757.0,STARLINK-5544,PAYLOAD,2023-11-12 22:02:02,14.98330259,0.0002617,70.0002,221.9285,268.5465,91.5395,2.374e-05,1.9e-06,0.0,0 STARLINK-5544,1 55757U 23028S   23316.91808572  .00000190  00000-0  23740-4 0  9999,2 55757  70.0002 221.9285 0002617 268.5465  91.5395 14.98330259 39054,6950.192,96.107,573.876,570.238,0.0
55757.0,STARLINK-5544,PAYLOAD,2023-11-13 02:50:26,14.98334719,0.000269,70.0,221.4233,274.3359,85.7493,6.3222e-05,6.62e-06,0.0,0 STARLINK-5544,1 55757U 23028S   23317.11836171  .00000662  00000-0  63222-4 0  9991,2 55757  70.0000 221.4233 0002690 274.3359  85.7493 14.98334719 39080,6950.178,96.107,573.913,570.174,0.0
55757.0,STARLINK-5544,PAYLOAD,2023-11-13 10:51:07,14.98337783,0.0002578,70.0002,220.5813,271.4464,88.6399,-0.00024196,-2.979e-05,0.0,0 STARLINK-5544,1 55757U 23028S   23317.45216627 -.00002979  00000-0 -24196-3 0  9997,2 55757  70.0002 220.5813 0002578 271.4464  88.6399 14.98337783 39133,6950.169,96.106,573.826,570.242,0.0
55757.0,STARLINK-5544,PAYLOAD,2023-11-14 02:52:27,14.98335053,0.0002682,69.9995,218.8978,265.8304,94.2548,4.849e-05,4.86e-06,0.0,0 STARLINK-5544,1 55757U 23028S   23318.11976129  .00000486  00000-0  48490-4 0  9994,2 55757  69.9995 218.8978 0002682 265.8304  94.2548 14.98335053 39237,6950.177,96.107,573.906,570.178,0.0
55757.0,STARLINK-5544,PAYLOAD,2023-11-14 04:28:35,14.98332542,0.0002794,69.9997,218.7298,264.6276,95.4564,1.9736e-05,1.43e-06,0.0,0 STARLINK-5544,1 55757U 23028S   23318.18652303  .00000143  00000-0  19736-4 0  9997,2 55757  69.9997 218.7298 0002794 264.6276  95.4564 14.98332542 39244,6950.185,96.107,573.992,570.108,0.0
55757.0,STARLINK-5544,PAYLOAD,2023-11-14 17:17:39,14.9833709,0.0003116,69.9999,217.383,272.483,87.5972,0.00016027,1.82e-05,0.0,0 STARLINK-5544,1 55757U 23028S   23318.72059286  .00001820  00000-0  16027-3 0  9990,2 55757  69.9999 217.3830 0003116 272.4830  87.5972 14.98337090 39322,6950.171,96.107,574.202,569.87,0.0
55757.0,STARLINK-5544,PAYLOAD,2023-11-15 02:54:26,14.98355999,0.000224,70.0001,216.3731,260.3281,99.7625,0.00019367,2.22e-05,0.0,0 STARLINK-5544,1 55757U 23028S   23319.12113619  .00002220  00000-0  19367-3 0  9991,2 55757  70.0001 216.3731 0002240 260.3281  99.7625 14.98355999 39385,6950.112,96.105,573.534,570.421,0.0
55757.0,STARLINK-5544,PAYLOAD,2023-11-16 02:56:29,14.98362345,0.0002692,70.0005,213.8477,260.8354,99.25,-0.00096238,-0.00011566,0.0,0 STARLINK-5544,1 55757U 23028S   23320.12256527 -.00011566  00000-0 -96238-3 0  9996,2 55757  70.0005 213.8477 0002692 260.8354  99.2500 14.98362345 39532,6950.093,96.105,573.829,570.087,0.0
55757.0,STARLINK-5544,PAYLOAD,2023-11-16 15:45:34,14.98330287,0.0002217,70.0021,212.5012,258.2257,101.8653,-0.00029148,-3.569e-05,0.0,0 STARLINK-5544,1 55757U 23028S   23320.65664739 -.00003569  00000-0 -29148-3 0  9992,2 55757  70.0021 212.5012 0002217 258.2257 101.8653 14.98330287 39615,6950.192,96.107,573.598,570.516,0.0
55757.0,STARLINK-5544,PAYLOAD,2023-11-17 02:58:29,14.98339918,0.0002388,69.9993,211.3239,266.1207,93.9679,-0.00020741,-2.567e-05,0.0,0 STARLINK-5544,1 55757U 23028S   23321.12395786 -.00002567  00000-0 -20741-3 0  9995,2 55757  69.9993 211.3239 0002388 266.1207  93.9679 14.98339918 39686,6950.162,96.106,573.687,570.368,0.0
55757.0,STARLINK-5544,PAYLOAD,2023-11-17 15:47:34,14.98333899,0.0002465,69.9997,209.9778,261.4927,98.5953,-9.3904e-05,-1.213e-05,0.0,0 STARLINK-5544,1 55757U 23028S   23321.65804390 -.00001213  00000-0 -93904-4 0  9998,2 55757  69.9997 209.9778 0002465 261.4927  98.5953 14.98333899 39761,6950.181,96.107,573.759,570.333,0.0
55757.0,STARLINK-5544,PAYLOAD,2023-11-18 09:25:03,14.98323333,0.0002509,69.9994,208.1261,263.4908,96.5966,0.00013048,1.464e-05,0.0,0 STARLINK-5544,1 55757U 23028S   23322.39240414  .00001464  00000-0  13048-3 0  9997,2 55757  69.9994 208.1261 0002509 263.4908  96.5966 14.98323333 39872,6950.214,96.107,573.822,570.335,0.0
55757.0,STARLINK-5544,PAYLOAD,2023-11-19 01:26:24,14.98332322,0.000242,69.9996,206.4429,265.2271,94.8612,7.318e-05,7.8e-06,0.0,0 STARLINK-5544,1 55757U 23028S   23323.06000068  .00000780  00000-0  73180-4 0  9995,2 55757  69.9996 206.4429 0002420 265.2271  94.8612 14.98332322 39974,6950.186,96.107,573.733,570.369,0.0
55757.0,STARLINK-5544,PAYLOAD,2023-11-19 09:27:04,14.98329208,0.0002448,69.9995,205.601,267.0198,93.0681,2.1367e-05,1.62e-06,0.0,0 STARLINK-5544,1 55757U 23028S   23323.39380377  .00000162  00000-0  21367-4 0  9999,2 55757  69.9995 205.6010 0002448 267.0198  93.0681 14.98329208 40022,6950.195,96.107,573.762,570.359,0.0
55757.0,STARLINK-5544,PAYLOAD,2023-11-19 19:03:53,14.98327794,0.0002418,69.9993,204.5912,268.7818,91.3064,-1.478e-05,-2.69e-06,0.0,0 STARLINK-5544,1 55757U 23028S   23323.79436599 -.00000269  00000-0 -14780-4 0  9992,2 55757  69.9993 204.5912 0002418 268.7818  91.3064 14.98327794 40083,6950.2,96.107,573.745,570.384,0.0
55757.0,STARLINK-5544,PAYLOAD,2023-11-19 22:16:09,14.98328548,0.0002376,69.9994,204.255,266.0512,94.0375,-8.7614e-07,-1.03e-06,0.0,0 STARLINK-5544,1 55757U 23028S   23323.92788504 -.00000103  00000-0 -87614-6 0  9998,2 55757  69.9994 204.2550 0002376 266.0512  94.0375 14.98328548 40100,6950.197,96.107,573.714,570.411,0.0
55757.0,STARLINK-5544,PAYLOAD,2023-11-20 09:29:05,14.9833032,0.0002401,69.9991,203.0766,267.1332,92.9553,-3.0342e-06,-1.29e-06,0.0,0 STARLINK-5544,1 55757U 23028S   23324.39520386 -.00000129  00000-0 -30342-5 0  9995,2 55757  69.9991 203.0766 0002401 267.1332  92.9553 14.98330320 40177,6950.192,96.107,573.726,570.388,0.0
55757.0,STARLINK-5544,PAYLOAD,2023-11-20 19:05:53,14.98333835,0.0002405,69.9991,202.0671,267.4488,92.6396,-1.7112e-05,-2.97e-06,0.0,0 STARLINK-5544,1 55757U 23028S   23324.79576135 -.00000297  00000-0 -17112-4 0  9997,2 55757  69.9991 202.0671 0002405 267.4488  92.6396 14.98333835 40233,6950.181,96.107,573.718,570.375,0.0
55757.0,STARLINK-5544,PAYLOAD,2023-11-20 22:18:09,14.98332572,0.0002392,69.9992,201.7307,267.5083,92.5802,2.8742e-05,2.5e-06,0.0,0 STARLINK-5544,1 55757U 23028S   23324.92928024  .00000250  00000-0  28742-4 0  9998,2 55757  69.9992 201.7307 0002392 267.5083  92.5802 14.98332572 40253,6950.185,96.107,573.712,570.387,0.0
55757.0,STARLINK-5544,PAYLOAD,2023-11-21 09:31:06,14.98329967,0.000242,69.9988,200.5517,268.4679,91.6203,-1.3246e-05,-2.51e-06,0.0,0 STARLINK-5544,1 55757U 23028S   23325.39660201 -.00000251  00000-0 -13246-4 0  9996,2 55757  69.9988 200.5517 0002420 268.4679  91.6203 14.98329967 40328,6950.193,96.107,573.74,570.376,0.0
55757.0,STARLINK-5544,PAYLOAD,2023-11-21 19:07:54,14.98327226,0.0002425,69.9986,199.5417,268.2754,91.8127,-1.8328e-06,-1.15e-06,0.0,0 STARLINK-5544,1 55757U 23028S   23325.79716357 -.00000115  00000-0 -18328-5 0  9990,2 55757  69.9986 199.5417 0002425 268.2754  91.8127 14.98327226 40388,6950.201,96.107,573.752,570.381,0.0
